[{"OBJECT_NAME":"HELIOS 1B","OBJECT_ID":"1999-064A","EPOCH":"2026-03-25T10:51:01.119456","MEAN_MOTION":14.87757337,"ECCENTRICITY":0.00019982,"INCLINATION":98.1673,"RA_OF_ASC_NODE":347.1575,"ARG_OF_PERICENTER":54.6235,"MEAN_ANOMALY":305.5167,"EPHEMERIS_TYPE":0,"CLASSIFICATION_TYPE":"U","NORAD_CAT_ID":25977,"ELEMENT_SET_NO":999,"REV_AT_EPOCH":68760,"BSTAR":0.00016926381,"MEAN_MOTION_DOT":1.486e-5,"MEAN_MOTION_DDOT":0},{"OBJECT_NAME":"TERRA","OBJECT_ID":"1999-068A","EPOCH":"2026-03-25T14:46:32.335392","MEAN_MOTION":14.61031024,"ECCENTRICITY":0.00034893,"INCLINATION":97.956,"RA_OF_ASC_NODE":137.4394,"ARG_OF_PERICENTER":118.0546,"MEAN_ANOMALY":4.2218,"EPHEMERIS_TYPE":0,"CLASSIFICATION_TYPE":"U","NORAD_CAT_ID":25994,"ELEMENT_SET_NO":999,"REV_AT_EPOCH":39740,"BSTAR":9.8215793e-5,"MEAN_MOTION_DOT":4.38e-6,"MEAN_MOTION_DDOT":0},{"OBJECT_NAME":"SL-16 R/B","OBJECT_ID":"2000-006B","EPOCH":"2026-03-25T15:02:03.645312","MEAN_MOTION":14.15825108,"ECCENTRICITY":0.00159211,"INCLINATION":71.0012,"RA_OF_ASC_NODE":64.3242,"ARG_OF_PERICENTER":164.9662,"MEAN_ANOMALY":195.1938,"EPHEMERIS_TYPE":0,"CLASSIFICATION_TYPE":"U","NORAD_CAT_ID":26070,"ELEMENT_SET_NO":999,"REV_AT_EPOCH":35081,"BSTAR":0.00015105644,"MEAN_MOTION_DOT":2.5e-6,"MEAN_MOTION_DDOT":0},{"OBJECT_NAME":"TITAN 4B R/B","OBJECT_ID":"2000-047B","EPOCH":"2026-03-25T14:20:36.811392","MEAN_MOTION":15.09710102,"ECCENTRICITY":0.00397396,"INCLINATION":67.9912,"RA_OF_ASC_NODE":355.7744,"ARG_OF_PERICENTER":16.7856,"MEAN_ANOMALY":343.4598,"EPHEMERIS_TYPE":0,"CLASSIFICATION_TYPE":"U","NORAD_CAT_ID":26474,"ELEMENT_SET_NO":999,"REV_AT_EPOCH":39531,"BSTAR":0.00024809355,"MEAN_MOTION_DOT":3.947e-5,"MEAN_MOTION_DDOT":0},{"OBJECT_NAME":"ENVISAT","OBJECT_ID":"2002-009A","EPOCH":"2026-03-25T15:01:06.857184","MEAN_MOTION":14.3904224,"ECCENTRICITY":0.00012474,"INCLINATION":98.3754,"RA_OF_ASC_NODE":37.8463,"ARG_OF_PERICENTER":81.5388,"MEAN_ANOMALY":91.5065,"EPHEMERIS_TYPE":0,"CLASSIFICATION_TYPE":"U","NORAD_CAT_ID":27386,"ELEMENT_SET_NO":999,"REV_AT_EPOCH":26146,"BSTAR":5.3486027e-5,"MEAN_MOTION_DOT":1.22e-6,"MEAN_MOTION_DDOT":0},{"OBJECT_NAME":"IDEFIX & ARIANE 42P R/B","OBJECT_ID":"2002-021B","EPOCH":"2026-03-25T13:51:26.919360","MEAN_MOTION":14.31036446,"ECCENTRICITY":0.00124819,"INCLINATION":98.5888,"RA_OF_ASC_NODE":22.9954,"ARG_OF_PERICENTER":136.3614,"MEAN_ANOMALY":223.8558,"EPHEMERIS_TYPE":0,"CLASSIFICATION_TYPE":"U","NORAD_CAT_ID":27422,"ELEMENT_SET_NO":999,"REV_AT_EPOCH":24629,"BSTAR":0.00012150941,"MEAN_MOTION_DOT":2.76e-6,"MEAN_MOTION_DDOT":0},{"OBJECT_NAME":"AQUA","OBJECT_ID":"2002-022A","EPOCH":"2026-03-25T15:39:31.603104","MEAN_MOTION":14.62012184,"ECCENTRICITY":0.00010013,"INCLINATION":98.4201,"RA_OF_ASC_NODE":52.3114,"ARG_OF_PERICENTER":117.3144,"MEAN_ANOMALY":56.1099,"EPHEMERIS_TYPE":0,"CLASSIFICATION_TYPE":"U","NORAD_CAT_ID":27424,"ELEMENT_SET_NO":999,"REV_AT_EPOCH":27106,"BSTAR":0.00020905973,"MEAN_MOTION_DOT":9.99e-6,"MEAN_MOTION_DDOT":0},{"OBJECT_NAME":"CZ-4B R/B","OBJECT_ID":"2002-024C","EPOCH":"2026-03-25T09:52:59.533824","MEAN_MOTION":14.14550311,"ECCENTRICITY":0.00496713,"INCLINATION":98.8806,"RA_OF_ASC_NODE":137.737,"ARG_OF_PERICENTER":339.5328,"MEAN_ANOMALY":30.7474,"EPHEMERIS_TYPE":0,"CLASSIFICATION_TYPE":"U","NORAD_CAT_ID":27432,"ELEMENT_SET_NO":999,"REV_AT_EPOCH":23146,"BSTAR":4.0075656e-5,"MEAN_MOTION_DOT":3.3e-7,"MEAN_MOTION_DDOT":0},{"OBJECT_NAME":"MIDORI II (ADEOS-II)","OBJECT_ID":"2002-056A","EPOCH":"2026-03-25T09:57:10.069632","MEAN_MOTION":14.29296396,"ECCENTRICITY":9.2e-5,"INCLINATION":98.7796,"RA_OF_ASC_NODE":43.0036,"ARG_OF_PERICENTER":25.5151,"MEAN_ANOMALY":334.6076,"EPHEMERIS_TYPE":0,"CLASSIFICATION_TYPE":"U","NORAD_CAT_ID":27597,"ELEMENT_SET_NO":999,"REV_AT_EPOCH":21254,"BSTAR":0.00013694544,"MEAN_MOTION_DOT":3.03e-6,"MEAN_MOTION_DDOT":0},{"OBJECT_NAME":"H-2A R/B","OBJECT_ID":"2002-056E","EPOCH":"2026-03-25T15:21:56.596032","MEAN_MOTION":14.33770805,"ECCENTRICITY":0.00712869,"INCLINATION":98.323,"RA_OF_ASC_NODE":44.4012,"ARG_OF_PERICENTER":113.6346,"MEAN_ANOMALY":58.6372,"EPHEMERIS_TYPE":0,"CLASSIFICATION_TYPE":"U","NORAD_CAT_ID":27601,"ELEMENT_SET_NO":999,"REV_AT_EPOCH":21639,"BSTAR":0.00011395436,"MEAN_MOTION_DOT":2.85e-6,"MEAN_MOTION_DDOT":0},{"OBJECT_NAME":"CZ-4B R/B","OBJECT_ID":"2003-049C","EPOCH":"2026-03-25T09:45:10.777536","MEAN_MOTION":14.55033801,"ECCENTRICITY":0.00480733,"INCLINATION":98.6893,"RA_OF_ASC_NODE":79.9296,"ARG_OF_PERICENTER":182.3715,"MEAN_ANOMALY":177.726,"EPHEMERIS_TYPE":0,"CLASSIFICATION_TYPE":"U","NORAD_CAT_ID":28059,"ELEMENT_SET_NO":999,"REV_AT_EPOCH":18888,"BSTAR":9.2646561e-5,"MEAN_MOTION_DOT":3.54e-6,"MEAN_MOTION_DDOT":0},{"OBJECT_NAME":"CZ-2C R/B","OBJECT_ID":"2004-012C","EPOCH":"2026-03-25T03:24:48.885408","MEAN_MOTION":15.66375966,"ECCENTRICITY":0.00130925,"INCLINATION":97.7188,"RA_OF_ASC_NODE":150.918,"ARG_OF_PERICENTER":246.5426,"MEAN_ANOMALY":113.4457,"EPHEMERIS_TYPE":0,"CLASSIFICATION_TYPE":"U","NORAD_CAT_ID":28222,"ELEMENT_SET_NO":999,"REV_AT_EPOCH":20669,"BSTAR":0.00054612389,"MEAN_MOTION_DOT":0.00056975,"MEAN_MOTION_DDOT":0},{"OBJECT_NAME":"SL-16 R/B","OBJECT_ID":"2004-021B","EPOCH":"2026-03-25T13:54:29.153376","MEAN_MOTION":14.14593693,"ECCENTRICITY":0.00047964,"INCLINATION":71.0004,"RA_OF_ASC_NODE":199.1464,"ARG_OF_PERICENTER":350.4773,"MEAN_ANOMALY":9.6258,"EPHEMERIS_TYPE":0,"CLASSIFICATION_TYPE":"U","NORAD_CAT_ID":28353,"ELEMENT_SET_NO":999,"REV_AT_EPOCH":12508,"BSTAR":6.223328e-5,"MEAN_MOTION_DOT":7.2e-7,"MEAN_MOTION_DDOT":0},{"OBJECT_NAME":"CZ-4B R/B","OBJECT_ID":"2004-035C","EPOCH":"2026-03-25T10:01:10.012800","MEAN_MOTION":15.29330961,"ECCENTRICITY":0.00299856,"INCLINATION":97.3477,"RA_OF_ASC_NODE":118.4726,"ARG_OF_PERICENTER":272.7683,"MEAN_ANOMALY":87.0126,"EPHEMERIS_TYPE":0,"CLASSIFICATION_TYPE":"U","NORAD_CAT_ID":28415,"ELEMENT_SET_NO":999,"REV_AT_EPOCH":18231,"BSTAR":0.00025213173,"MEAN_MOTION_DOT":7.192e-5,"MEAN_MOTION_DDOT":0},{"OBJECT_NAME":"CZ-2C R/B","OBJECT_ID":"2004-046B","EPOCH":"2026-03-25T07:58:34.214016","MEAN_MOTION":14.26997452,"ECCENTRICITY":0.01405423,"INCLINATION":98.1977,"RA_OF_ASC_NODE":358.3419,"ARG_OF_PERICENTER":108.4596,"MEAN_ANOMALY":253.1921,"EPHEMERIS_TYPE":0,"CLASSIFICATION_TYPE":"U","NORAD_CAT_ID":28480,"ELEMENT_SET_NO":999,"REV_AT_EPOCH":11073,"BSTAR":6.8106101e-5,"MEAN_MOTION_DOT":1.44e-6,"MEAN_MOTION_DDOT":0},{"OBJECT_NAME":"ARIANE 5 R/B","OBJECT_ID":"2004-049H","EPOCH":"2026-03-25T11:08:14.920512","MEAN_MOTION":14.85293041,"ECCENTRICITY":0.00830058,"INCLINATION":98.2651,"RA_OF_ASC_NODE":253.5143,"ARG_OF_PERICENTER":300.3891,"MEAN_ANOMALY":58.9137,"EPHEMERIS_TYPE":0,"CLASSIFICATION_TYPE":"U","NORAD_CAT_ID":28499,"ELEMENT_SET_NO":999,"REV_AT_EPOCH":14813,"BSTAR":9.2253614e-5,"MEAN_MOTION_DOT":7.76e-6,"MEAN_MOTION_DDOT":0},{"OBJECT_NAME":"CZ-2D R/B","OBJECT_ID":"2005-024B","EPOCH":"2026-03-25T11:31:42.181248","MEAN_MOTION":15.61567796,"ECCENTRICITY":0.00029724,"INCLINATION":97.359,"RA_OF_ASC_NODE":100.2219,"ARG_OF_PERICENTER":356.1869,"MEAN_ANOMALY":3.9365,"EPHEMERIS_TYPE":0,"CLASSIFICATION_TYPE":"U","NORAD_CAT_ID":28738,"ELEMENT_SET_NO":999,"REV_AT_EPOCH":14224,"BSTAR":0.00050057763,"MEAN_MOTION_DOT":0.00042977,"MEAN_MOTION_DDOT":0}]
