HELIOS 1B               
1 25977U 99064A   26084.45209629  .00001486  00000+0  16926-3 0  9990
2 25977  98.1673 347.1575 0001998  54.6235 305.5167 14.87757337687606
TERRA                   
1 25994U 99068A   26084.61565203  .00000438  00000+0  98216-4 0  9993
2 25994  97.9560 137.4394 0003489 118.0546   4.2218 14.61031024397409
SL-16 R/B               
1 26070U 00006B   26084.62643108  .00000250  00000+0  15106-3 0  9993
2 26070  71.0012  64.3242 0015921 164.9662 195.1938 14.15825108350819
TITAN 4B R/B            
1 26474U 00047B   26084.59764828  .00003947  00000+0  24809-3 0  9991
2 26474  67.9912 355.7744 0039739  16.7856 343.4598 15.09710102395311
ENVISAT                 
1 27386U 02009A   26084.62577381  .00000122  00000+0  53486-4 0  9990
2 27386  98.3754  37.8463 0001247  81.5388  91.5065 14.39042240261466
IDEFIX & ARIANE 42P R/B 
1 27422U 02021B   26084.57739490  .00000276  00000+0  12151-3 0  9993
2 27422  98.5888  22.9954 0012481 136.3614 223.8558 14.31036446246294
AQUA                    
1 27424U 02022A   26084.65244911  .00000999  00000+0  20906-3 0  9993
2 27424  98.4201  52.3114 0001001 117.3144  56.1099 14.62012184271069
CZ-4B R/B               
1 27432U 02024C   26084.41180016  .00000033  00000+0  40076-4 0  9993
2 27432  98.8806 137.7370 0049671 339.5328  30.7474 14.14550311231463
MIDORI II (ADEOS-II)    
1 27597U 02056A   26084.41469988  .00000303  00000+0  13695-3 0  9994
2 27597  98.7796  43.0036 0000920  25.5151 334.6076 14.29296396212548
H-2A R/B                
1 27601U 02056E   26084.64023838  .00000285  00000+0  11395-3 0  9999
2 27601  98.3230  44.4012 0071286 113.6346  58.6372 14.33770805216396
CZ-4B R/B               
1 28059U 03049C   26084.40637474  .00000354  00000+0  92647-4 0  9998
2 28059  98.6893  79.9296 0048073 182.3715 177.7260 14.55033801188883
CZ-2C R/B               
1 28222U 04012C   26084.14223247  .00056975  00000+0  54612-3 0  9990
2 28222  97.7188 150.9180 0013092 246.5426 113.4457 15.66375966206698
SL-16 R/B               
1 28353U 04021B   26084.57950409  .00000072  00000+0  62233-4 0  9995
2 28353  71.0004 199.1464 0004796 350.4773   9.6258 14.14593693125085
CZ-4B R/B               
1 28415U 04035C   26084.41747700  .00007192  00000+0  25213-3 0  9996
2 28415  97.3477 118.4726 0029985 272.7683  87.0126 15.29330961182314
CZ-2C R/B               
1 28480U 04046B   26084.33234044  .00000144  00000+0  68106-4 0  9992
2 28480  98.1977 358.3419 0140542 108.4596 253.1921 14.26997452110731
ARIANE 5 R/B            
1 28499U 04049H   26084.46406158  .00000776  00000+0  92254-4 0  9998
2 28499  98.2651 253.5143 0083005 300.3891  58.9137 14.85293041148135
CZ-2D R/B               
1 28738U 05024B   26084.48034932  .00042977  00000+0  50058-3 0  9991
2 28738  97.3590 100.2219 0002972 356.1869   3.9365 15.61567796142248
